IRIDIUM 57              
1 25273U 98019B   24298.88279924  .00001190  00000+0  40712-3 0  9997
2 25273  86.3957 243.7596 0002373  86.1380 274.0088 14.35507272391026
IRIDIUM 63              
1 25286U 98021B   24298.71521805  .00001095  00000+0  36948-3 0  9994
2 25286  86.4045 180.8184 0002050  77.4321 282.7105 14.36117939390048
IRIDIUM 69              
1 25319U 98026A   24298.74828771  .00001610  00000+0  50091-3 0  9999
2 25319  86.4044 194.7806 0004589  79.9320 280.2396 14.40429951389165
IRIDIUM 71              
1 25320U 98026B   24298.79065257  .00001134  00000+0  34924-3 0  9996
2 25320  86.4043 189.5046 0003744 112.3876 247.7721 14.40694158389695
IRIDIUM 73              
1 25344U 98032C   24298.62558093  .00001497  00000+0  37341-3 0  9994
2 25344  86.4424 146.8274 0002761  81.4958 278.6560 14.51029495396395
IRIDIUM 82              
1 25467U 98051A   24298.82139814  .00031423  00000+0  13353-2 0  9997
2 25467  86.3750 223.9656 0117777 101.0376 260.4138 15.16712084388093
