<?xml version="1.0" encoding="UTF-8"?>
<ndm xmlns:xsi="http://www.w3.org/2001/XMLSchema-instance" xsi:noNamespaceSchemaLocation="https://sanaregistry.org/r/ndmxml_unqualified/ndmxml-2.0.0-master-2.0.xsd">
<omm id="CCSDS_OMM_VERS" version="2.0">
<header><CREATION_DATE/><ORIGINATOR/></header><body><segment><metadata><OBJECT_NAME>IRIDIUM 57</OBJECT_NAME><OBJECT_ID>1998-019B</OBJECT_ID><CENTER_NAME>EARTH</CENTER_NAME><REF_FRAME>TEME</REF_FRAME><TIME_SYSTEM>UTC</TIME_SYSTEM><MEAN_ELEMENT_THEORY>SGP4</MEAN_ELEMENT_THEORY></metadata><data><meanElements><EPOCH>2024-10-24T21:11:13.854336</EPOCH><MEAN_MOTION>14.35507272</MEAN_MOTION><ECCENTRICITY>.0002373</ECCENTRICITY><INCLINATION>86.3957</INCLINATION><RA_OF_ASC_NODE>243.7596</RA_OF_ASC_NODE><ARG_OF_PERICENTER>86.1380</ARG_OF_PERICENTER><MEAN_ANOMALY>274.0088</MEAN_ANOMALY></meanElements><tleParameters><EPHEMERIS_TYPE>0</EPHEMERIS_TYPE><CLASSIFICATION_TYPE>U</CLASSIFICATION_TYPE><NORAD_CAT_ID>25273</NORAD_CAT_ID><ELEMENT_SET_NO>999</ELEMENT_SET_NO><REV_AT_EPOCH>39102</REV_AT_EPOCH><BSTAR>.40712E-3</BSTAR><MEAN_MOTION_DOT>.119E-4</MEAN_MOTION_DOT><MEAN_MOTION_DDOT>0</MEAN_MOTION_DDOT></tleParameters></data></segment></body></omm>
<omm id="CCSDS_OMM_VERS" version="2.0">
<header><CREATION_DATE/><ORIGINATOR/></header><body><segment><metadata><OBJECT_NAME>IRIDIUM 63</OBJECT_NAME><OBJECT_ID>1998-021B</OBJECT_ID><CENTER_NAME>EARTH</CENTER_NAME><REF_FRAME>TEME</REF_FRAME><TIME_SYSTEM>UTC</TIME_SYSTEM><MEAN_ELEMENT_THEORY>SGP4</MEAN_ELEMENT_THEORY></metadata><data><meanElements><EPOCH>2024-10-24T17:09:54.839520</EPOCH><MEAN_MOTION>14.36117939</MEAN_MOTION><ECCENTRICITY>.000205</ECCENTRICITY><INCLINATION>86.4045</INCLINATION><RA_OF_ASC_NODE>180.8184</RA_OF_ASC_NODE><ARG_OF_PERICENTER>77.4321</ARG_OF_PERICENTER><MEAN_ANOMALY>282.7105</MEAN_ANOMALY></meanElements><tleParameters><EPHEMERIS_TYPE>0</EPHEMERIS_TYPE><CLASSIFICATION_TYPE>U</CLASSIFICATION_TYPE><NORAD_CAT_ID>25286</NORAD_CAT_ID><ELEMENT_SET_NO>999</ELEMENT_SET_NO><REV_AT_EPOCH>39004</REV_AT_EPOCH><BSTAR>.36948E-3</BSTAR><MEAN_MOTION_DOT>.1095E-4</MEAN_MOTION_DOT><MEAN_MOTION_DDOT>0</MEAN_MOTION_DDOT></tleParameters></data></segment></body></omm>
<omm id="CCSDS_OMM_VERS" version="2.0">
<header><CREATION_DATE/><ORIGINATOR/></header><body><segment><metadata><OBJECT_NAME>IRIDIUM 69</OBJECT_NAME><OBJECT_ID>1998-026A</OBJECT_ID><CENTER_NAME>EARTH</CENTER_NAME><REF_FRAME>TEME</REF_FRAME><TIME_SYSTEM>UTC</TIME_SYSTEM><MEAN_ELEMENT_THEORY>SGP4</MEAN_ELEMENT_THEORY></metadata><data><meanElements><EPOCH>2024-10-24T17:57:32.058144</EPOCH><MEAN_MOTION>14.40429951</MEAN_MOTION><ECCENTRICITY>.0004589</ECCENTRICITY><INCLINATION>86.4044</INCLINATION><RA_OF_ASC_NODE>194.7806</RA_OF_ASC_NODE><ARG_OF_PERICENTER>79.9320</ARG_OF_PERICENTER><MEAN_ANOMALY>280.2396</MEAN_ANOMALY></meanElements><tleParameters><EPHEMERIS_TYPE>0</EPHEMERIS_TYPE><CLASSIFICATION_TYPE>U</CLASSIFICATION_TYPE><NORAD_CAT_ID>25319</NORAD_CAT_ID><ELEMENT_SET_NO>999</ELEMENT_SET_NO><REV_AT_EPOCH>38916</REV_AT_EPOCH><BSTAR>.50091E-3</BSTAR><MEAN_MOTION_DOT>.161E-4</MEAN_MOTION_DOT><MEAN_MOTION_DDOT>0</MEAN_MOTION_DDOT></tleParameters></data></segment></body></omm>
<omm id="CCSDS_OMM_VERS" version="2.0">
<header><CREATION_DATE/><ORIGINATOR/></header><body><segment><metadata><OBJECT_NAME>IRIDIUM 71</OBJECT_NAME><OBJECT_ID>1998-026B</OBJECT_ID><CENTER_NAME>EARTH</CENTER_NAME><REF_FRAME>TEME</REF_FRAME><TIME_SYSTEM>UTC</TIME_SYSTEM><MEAN_ELEMENT_THEORY>SGP4</MEAN_ELEMENT_THEORY></metadata><data><meanElements><EPOCH>2024-10-24T18:58:32.382048</EPOCH><MEAN_MOTION>14.40694158</MEAN_MOTION><ECCENTRICITY>.0003744</ECCENTRICITY><INCLINATION>86.4043</INCLINATION><RA_OF_ASC_NODE>189.5046</RA_OF_ASC_NODE><ARG_OF_PERICENTER>112.3876</ARG_OF_PERICENTER><MEAN_ANOMALY>247.7721</MEAN_ANOMALY></meanElements><tleParameters><EPHEMERIS_TYPE>0</EPHEMERIS_TYPE><CLASSIFICATION_TYPE>U</CLASSIFICATION_TYPE><NORAD_CAT_ID>25320</NORAD_CAT_ID><ELEMENT_SET_NO>999</ELEMENT_SET_NO><REV_AT_EPOCH>38969</REV_AT_EPOCH><BSTAR>.34924E-3</BSTAR><MEAN_MOTION_DOT>.1134E-4</MEAN_MOTION_DOT><MEAN_MOTION_DDOT>0</MEAN_MOTION_DDOT></tleParameters></data></segment></body></omm>
<omm id="CCSDS_OMM_VERS" version="2.0">
<header><CREATION_DATE/><ORIGINATOR/></header><body><segment><metadata><OBJECT_NAME>IRIDIUM 73</OBJECT_NAME><OBJECT_ID>1998-032C</OBJECT_ID><CENTER_NAME>EARTH</CENTER_NAME><REF_FRAME>TEME</REF_FRAME><TIME_SYSTEM>UTC</TIME_SYSTEM><MEAN_ELEMENT_THEORY>SGP4</MEAN_ELEMENT_THEORY></metadata><data><meanElements><EPOCH>2024-10-24T15:00:50.192352</EPOCH><MEAN_MOTION>14.51029495</MEAN_MOTION><ECCENTRICITY>.0002761</ECCENTRICITY><INCLINATION>86.4424</INCLINATION><RA_OF_ASC_NODE>146.8274</RA_OF_ASC_NODE><ARG_OF_PERICENTER>81.4958</ARG_OF_PERICENTER><MEAN_ANOMALY>278.6560</MEAN_ANOMALY></meanElements><tleParameters><EPHEMERIS_TYPE>0</EPHEMERIS_TYPE><CLASSIFICATION_TYPE>U</CLASSIFICATION_TYPE><NORAD_CAT_ID>25344</NORAD_CAT_ID><ELEMENT_SET_NO>999</ELEMENT_SET_NO><REV_AT_EPOCH>39639</REV_AT_EPOCH><BSTAR>.37341E-3</BSTAR><MEAN_MOTION_DOT>.1497E-4</MEAN_MOTION_DOT><MEAN_MOTION_DDOT>0</MEAN_MOTION_DDOT></tleParameters></data></segment></body></omm>
<omm id="CCSDS_OMM_VERS" version="2.0">
<header><CREATION_DATE/><ORIGINATOR/></header><body><segment><metadata><OBJECT_NAME>IRIDIUM 82</OBJECT_NAME><OBJECT_ID>1998-051A</OBJECT_ID><CENTER_NAME>EARTH</CENTER_NAME><REF_FRAME>TEME</REF_FRAME><TIME_SYSTEM>UTC</TIME_SYSTEM><MEAN_ELEMENT_THEORY>SGP4</MEAN_ELEMENT_THEORY></metadata><data><meanElements><EPOCH>2024-10-24T19:42:48.799296</EPOCH><MEAN_MOTION>15.16712084</MEAN_MOTION><ECCENTRICITY>.0117777</ECCENTRICITY><INCLINATION>86.3750</INCLINATION><RA_OF_ASC_NODE>223.9656</RA_OF_ASC_NODE><ARG_OF_PERICENTER>101.0376</ARG_OF_PERICENTER><MEAN_ANOMALY>260.4138</MEAN_ANOMALY></meanElements><tleParameters><EPHEMERIS_TYPE>0</EPHEMERIS_TYPE><CLASSIFICATION_TYPE>U</CLASSIFICATION_TYPE><NORAD_CAT_ID>25467</NORAD_CAT_ID><ELEMENT_SET_NO>999</ELEMENT_SET_NO><REV_AT_EPOCH>38809</REV_AT_EPOCH><BSTAR>.13353E-2</BSTAR><MEAN_MOTION_DOT>.31423E-3</MEAN_MOTION_DOT><MEAN_MOTION_DDOT>0</MEAN_MOTION_DDOT></tleParameters></data></segment></body></omm>
</ndm>
